{"fetched_at":"2026-07-15T06:36:10.371Z","source":"https://celestrak.org/NORAD/elements/gp.php?NAME=JILIN&FORMAT=JSON","constellation":"jilin-1-early","records":[{"OBJECT_NAME":"JILIN-1","OBJECT_ID":"2015-057D","EPOCH":"2026-07-14T21:39:29.894112","CLASSIFICATION_TYPE":"U","MEAN_MOTION":14.7820114,"ECCENTRICITY":0.00171976,"INCLINATION":97.6519,"RA_OF_ASC_NODE":193.8949,"ARG_OF_PERICENTER":167.8395,"MEAN_ANOMALY":192.3236,"EPHEMERIS_TYPE":0,"NORAD_CAT_ID":40961,"ELEMENT_SET_NO":999,"REV_AT_EPOCH":57970,"BSTAR":0.000058012746,"MEAN_MOTION_DOT":0.00000373,"MEAN_MOTION_DDOT":0},{"OBJECT_NAME":"JILIN-1 03","OBJECT_ID":"2017-002B","EPOCH":"2026-07-14T22:21:32.095872","CLASSIFICATION_TYPE":"U","MEAN_MOTION":15.4222677,"ECCENTRICITY":0.00078846,"INCLINATION":97.1944,"RA_OF_ASC_NODE":202.6375,"ARG_OF_PERICENTER":80.1581,"MEAN_ANOMALY":280.0556,"EPHEMERIS_TYPE":0,"NORAD_CAT_ID":41914,"ELEMENT_SET_NO":999,"REV_AT_EPOCH":52613,"BSTAR":0.00017968412,"MEAN_MOTION_DOT":0.0000764,"MEAN_MOTION_DDOT":0},{"OBJECT_NAME":"JILIN-1 04","OBJECT_ID":"2017-074A","EPOCH":"2026-07-14T21:51:48.063744","CLASSIFICATION_TYPE":"U","MEAN_MOTION":15.43126346,"ECCENTRICITY":0.00052505,"INCLINATION":97.4882,"RA_OF_ASC_NODE":306.2784,"ARG_OF_PERICENTER":100.9197,"MEAN_ANOMALY":259.2641,"EPHEMERIS_TYPE":0,"NORAD_CAT_ID":43022,"ELEMENT_SET_NO":999,"REV_AT_EPOCH":47854,"BSTAR":0.00019343981,"MEAN_MOTION_DOT":0.00008474,"MEAN_MOTION_DDOT":0},{"OBJECT_NAME":"JILIN-1 05","OBJECT_ID":"2017-074B","EPOCH":"2026-07-14T21:47:38.810976","CLASSIFICATION_TYPE":"U","MEAN_MOTION":15.3428268,"ECCENTRICITY":0.00064412,"INCLINATION":97.4885,"RA_OF_ASC_NODE":302.4468,"ARG_OF_PERICENTER":125.444,"MEAN_ANOMALY":234.7405,"EPHEMERIS_TYPE":0,"NORAD_CAT_ID":43023,"ELEMENT_SET_NO":999,"REV_AT_EPOCH":47825,"BSTAR":0.00014741991,"MEAN_MOTION_DOT":0.00004813,"MEAN_MOTION_DDOT":0},{"OBJECT_NAME":"JILIN-1 06","OBJECT_ID":"2017-074C","EPOCH":"2026-07-14T21:12:52.219872","CLASSIFICATION_TYPE":"U","MEAN_MOTION":15.33993749,"ECCENTRICITY":0.00080729,"INCLINATION":97.4811,"RA_OF_ASC_NODE":299.3948,"ARG_OF_PERICENTER":135.041,"MEAN_ANOMALY":225.1488,"EPHEMERIS_TYPE":0,"NORAD_CAT_ID":43024,"ELEMENT_SET_NO":999,"REV_AT_EPOCH":47808,"BSTAR":0.0001083404,"MEAN_MOTION_DOT":0.00003484,"MEAN_MOTION_DDOT":0},{"OBJECT_NAME":"JILIN-1 07","OBJECT_ID":"2018-008E","EPOCH":"2026-07-14T22:18:32.238720","CLASSIFICATION_TYPE":"U","MEAN_MOTION":15.35161702,"ECCENTRICITY":0.0006772,"INCLINATION":97.1763,"RA_OF_ASC_NODE":215.1253,"ARG_OF_PERICENTER":329.3007,"MEAN_ANOMALY":30.784,"EPHEMERIS_TYPE":0,"NORAD_CAT_ID":43159,"ELEMENT_SET_NO":999,"REV_AT_EPOCH":46925,"BSTAR":0.00015101488,"MEAN_MOTION_DOT":0.00005079,"MEAN_MOTION_DDOT":0},{"OBJECT_NAME":"JILIN-1 08","OBJECT_ID":"2018-008F","EPOCH":"2026-07-14T21:13:10.316352","CLASSIFICATION_TYPE":"U","MEAN_MOTION":15.34008098,"ECCENTRICITY":0.00053385,"INCLINATION":97.1799,"RA_OF_ASC_NODE":214.3662,"ARG_OF_PERICENTER":353.9411,"MEAN_ANOMALY":6.1767,"EPHEMERIS_TYPE":0,"NORAD_CAT_ID":43160,"ELEMENT_SET_NO":999,"REV_AT_EPOCH":46919,"BSTAR":0.00010658584,"MEAN_MOTION_DOT":0.00003431,"MEAN_MOTION_DDOT":0},{"OBJECT_NAME":"JILIN-1 09","OBJECT_ID":"2019-005B","EPOCH":"2026-07-14T21:12:18.878112","CLASSIFICATION_TYPE":"U","MEAN_MOTION":15.20739417,"ECCENTRICITY":0.0002377,"INCLINATION":97.4749,"RA_OF_ASC_NODE":290.6141,"ARG_OF_PERICENTER":37.44,"MEAN_ANOMALY":322.7001,"EPHEMERIS_TYPE":0,"NORAD_CAT_ID":43943,"ELEMENT_SET_NO":999,"REV_AT_EPOCH":41335,"BSTAR":0.00011834648,"MEAN_MOTION_DOT":0.00002535,"MEAN_MOTION_DDOT":0},{"OBJECT_NAME":"JILIN-1 10","OBJECT_ID":"2019-005E","EPOCH":"2026-07-14T22:21:54.409536","CLASSIFICATION_TYPE":"U","MEAN_MOTION":15.26005024,"ECCENTRICITY":0.00085407,"INCLINATION":97.48,"RA_OF_ASC_NODE":294.7424,"ARG_OF_PERICENTER":170.6358,"MEAN_ANOMALY":189.5041,"EPHEMERIS_TYPE":0,"NORAD_CAT_ID":43946,"ELEMENT_SET_NO":999,"REV_AT_EPOCH":41354,"BSTAR":0.00013273575,"MEAN_MOTION_DOT":0.00003342,"MEAN_MOTION_DDOT":0}]}
