JILIN-1                 
1 40961U 15057D   26195.90242933  .00000373  00000+0  58013-4 0  9996
2 40961  97.6519 193.8949 0017197 167.8395 192.3236 14.78201140579708
JILIN-1 03              
1 41914U 17002B   26195.93162148  .00007640  00000+0  17968-3 0  9996
2 41914  97.1944 202.6375 0007884  80.1581 280.0556 15.42226770526139
JILIN-1 04              
1 43022U 17074A   26195.91097296  .00008474  00000+0  19344-3 0  9992
2 43022  97.4882 306.2784 0005250 100.9197 259.2641 15.43126346478542
JILIN-1 05              
1 43023U 17074B   26195.90808809  .00004813  00000+0  14742-3 0  9992
2 43023  97.4885 302.4468 0006441 125.4440 234.7405 15.34282680478257
JILIN-1 06              
1 43024U 17074C   26195.88393773  .00003484  00000+0  10834-3 0  9990
2 43024  97.4811 299.3948 0008072 135.0410 225.1488 15.33993749478080
JILIN-1 07              
1 43159U 18008E   26195.92953980  .00005079  00000+0  15101-3 0  9998
2 43159  97.1763 215.1253 0006772 329.3007  30.7840 15.35161702469251
JILIN-1 08              
1 43160U 18008F   26195.88414718  .00003431  00000+0  10659-3 0  9999
2 43160  97.1799 214.3662 0005338 353.9411   6.1767 15.34008098469191
JILIN-1 09              
1 43943U 19005B   26195.88355183  .00002535  00000+0  11835-3 0  9997
2 43943  97.4749 290.6141 0002377  37.4400 322.7001 15.20739417413355
JILIN-1 10              
1 43946U 19005E   26195.93187974  .00003342  00000+0  13274-3 0  9993
2 43946  97.4800 294.7424 0008540 170.6358 189.5041 15.26005024413545
